HULIANWANG DIGUI-97     
1 66413U 25258B   26085.46640955 -.00000078  00000+0  99290-4 0  9990
2 66413  49.9999 232.5694 0000637 176.2639 183.8238 13.29334155 18729
HULIANWANG DIGUI-98     
1 66414U 25258C   26085.45800806 -.00000078  00000+0  99204-4 0  9998
2 66414  50.0036 232.5736 0000693 181.8198 178.2672 13.29335833 18720
HULIANWANG DIGUI-99     
1 66415U 25258D   26085.49984144 -.00000080  00000+0  95600-4 0  9990
2 66415  50.0035 232.1245 0000554 174.1194 185.9685 13.29333367 18727
HULIANWANG DIGUI-100    
1 66416U 25258E   26085.44965317 -.00000080  00000+0  94453-4 0  9992
2 66416  50.0039 232.5329 0000527 171.6875 188.4006 13.29336292 18733
HULIANWANG DIGUI-101    
1 66417U 25258F   26085.51651655 -.00000079  00000+0  96152-4 0  9994
2 66417  49.9989 232.1535 0000548 170.1699 189.9184 13.29334444 18742
HULIANWANG DIGUI-102    
1 66418U 25258G   26085.49139639 -.00000082  00000+0  91453-4 0  9998
2 66418  50.0003 232.0358 0000597 181.8971 178.1899 13.29336336 18735
HULIANWANG DIGUI-103    
1 66419U 25258H   26085.48307812 -.00000089  00000+0  75718-4 0  9991
2 66419  49.9995 231.9834 0000500 174.0780 186.0098 13.29335364 18735
HULIANWANG DIGUI-104    
1 66420U 25258J   26085.47475140 -.00000085  00000+0  84968-4 0  9995
2 66420  50.0013 231.9653 0000621 183.1424 176.9444 13.29334647 18725
HULIANWANG DIGUI-105    
1 66915U 25285A   26085.47869277 -.00000088  00000+0  78683-4 0  9992
2 66915  50.0042  82.8481 0000434 359.5705   0.5166 13.29332718 15054
HULIANWANG DIGUI-106    
1 66916U 25285B   26083.13964028 -.00498656  00000+0 -11178+1 0  9999
2 66916  50.0302  91.2872 0001451 188.8325 171.2522 13.29360641 14746
HULIANWANG DIGUI-107    
1 66917U 25285C   26085.53717598 -.00000094  00000+0  65786-4 0  9996
2 66917  50.0018  82.4700 0000398   1.0276 359.0597 13.29332116 15063
HULIANWANG DIGUI-108    
1 66918U 25285D   26085.52880703 -.00000091  00000+0  70975-4 0  9998
2 66918  50.0040  82.4469 0000377   2.2496 357.8378 13.29332750 15062
HULIANWANG DIGUI-109    
1 66919U 25285E   26085.44528084 -.00000091  00000+0  71842-4 0  9995
2 66919  50.0065  82.6972 0000376 359.7045   0.3827 13.29332611 15065
HULIANWANG DIGUI-110    
1 66920U 25285F   26085.51212315 -.00000089  00000+0  76267-4 0  9995
2 66920  50.0097  82.4148 0000393 358.9243   1.1629 13.29332034 15063
HULIANWANG DIGUI-111    
1 66921U 25285G   26085.50377023 -.00000085  00000+0  85034-4 0  9991
2 66921  50.0113  82.3874 0000390   0.6997 359.3876 13.29332047 15068
HULIANWANG DIGUI-112    
1 66922U 25285H   26085.49540385 -.00000081  00000+0  92913-4 0  9993
2 66922  50.0076  82.3103 0000406   2.0697 358.0177 13.29332754 15068
