[{"OBJECT_NAME":"HULIANWANG DIGUI-97","OBJECT_ID":"2025-258B","EPOCH":"2026-03-26T11:11:37.785120","MEAN_MOTION":13.29334155,"ECCENTRICITY":6.37e-5,"INCLINATION":49.9999,"RA_OF_ASC_NODE":232.5694,"ARG_OF_PERICENTER":176.2639,"MEAN_ANOMALY":183.8238,"EPHEMERIS_TYPE":0,"CLASSIFICATION_TYPE":"U","NORAD_CAT_ID":66413,"ELEMENT_SET_NO":999,"REV_AT_EPOCH":1872,"BSTAR":9.929e-5,"MEAN_MOTION_DOT":-7.8e-7,"MEAN_MOTION_DDOT":0},{"OBJECT_NAME":"HULIANWANG DIGUI-98","OBJECT_ID":"2025-258C","EPOCH":"2026-03-26T10:59:31.896384","MEAN_MOTION":13.29335833,"ECCENTRICITY":6.93e-5,"INCLINATION":50.0036,"RA_OF_ASC_NODE":232.5736,"ARG_OF_PERICENTER":181.8198,"MEAN_ANOMALY":178.2672,"EPHEMERIS_TYPE":0,"CLASSIFICATION_TYPE":"U","NORAD_CAT_ID":66414,"ELEMENT_SET_NO":999,"REV_AT_EPOCH":1872,"BSTAR":9.9204e-5,"MEAN_MOTION_DOT":-7.8e-7,"MEAN_MOTION_DDOT":0},{"OBJECT_NAME":"HULIANWANG DIGUI-99","OBJECT_ID":"2025-258D","EPOCH":"2026-03-26T11:59:46.300416","MEAN_MOTION":13.29333367,"ECCENTRICITY":5.54e-5,"INCLINATION":50.0035,"RA_OF_ASC_NODE":232.1245,"ARG_OF_PERICENTER":174.1194,"MEAN_ANOMALY":185.9685,"EPHEMERIS_TYPE":0,"CLASSIFICATION_TYPE":"U","NORAD_CAT_ID":66415,"ELEMENT_SET_NO":999,"REV_AT_EPOCH":1872,"BSTAR":9.56e-5,"MEAN_MOTION_DOT":-8.0e-7,"MEAN_MOTION_DDOT":0},{"OBJECT_NAME":"HULIANWANG DIGUI-100","OBJECT_ID":"2025-258E","EPOCH":"2026-03-26T10:47:30.033888","MEAN_MOTION":13.29336292,"ECCENTRICITY":5.27e-5,"INCLINATION":50.0039,"RA_OF_ASC_NODE":232.5329,"ARG_OF_PERICENTER":171.6875,"MEAN_ANOMALY":188.4006,"EPHEMERIS_TYPE":0,"CLASSIFICATION_TYPE":"U","NORAD_CAT_ID":66416,"ELEMENT_SET_NO":999,"REV_AT_EPOCH":1873,"BSTAR":9.4453e-5,"MEAN_MOTION_DOT":-8.0e-7,"MEAN_MOTION_DDOT":0},{"OBJECT_NAME":"HULIANWANG DIGUI-101","OBJECT_ID":"2025-258F","EPOCH":"2026-03-26T12:23:47.029920","MEAN_MOTION":13.29334444,"ECCENTRICITY":5.48e-5,"INCLINATION":49.9989,"RA_OF_ASC_NODE":232.1535,"ARG_OF_PERICENTER":170.1699,"MEAN_ANOMALY":189.9184,"EPHEMERIS_TYPE":0,"CLASSIFICATION_TYPE":"U","NORAD_CAT_ID":66417,"ELEMENT_SET_NO":999,"REV_AT_EPOCH":1874,"BSTAR":9.6152e-5,"MEAN_MOTION_DOT":-7.9e-7,"MEAN_MOTION_DDOT":0},{"OBJECT_NAME":"HULIANWANG DIGUI-102","OBJECT_ID":"2025-258G","EPOCH":"2026-03-26T11:47:36.648096","MEAN_MOTION":13.29336336,"ECCENTRICITY":5.97e-5,"INCLINATION":50.0003,"RA_OF_ASC_NODE":232.0358,"ARG_OF_PERICENTER":181.8971,"MEAN_ANOMALY":178.1899,"EPHEMERIS_TYPE":0,"CLASSIFICATION_TYPE":"U","NORAD_CAT_ID":66418,"ELEMENT_SET_NO":999,"REV_AT_EPOCH":1873,"BSTAR":9.1453e-5,"MEAN_MOTION_DOT":-8.2e-7,"MEAN_MOTION_DDOT":0},{"OBJECT_NAME":"HULIANWANG DIGUI-103","OBJECT_ID":"2025-258H","EPOCH":"2026-03-26T11:35:37.949568","MEAN_MOTION":13.29335364,"ECCENTRICITY":5.0e-5,"INCLINATION":49.9995,"RA_OF_ASC_NODE":231.9834,"ARG_OF_PERICENTER":174.078,"MEAN_ANOMALY":186.0098,"EPHEMERIS_TYPE":0,"CLASSIFICATION_TYPE":"U","NORAD_CAT_ID":66419,"ELEMENT_SET_NO":999,"REV_AT_EPOCH":1873,"BSTAR":7.5718e-5,"MEAN_MOTION_DOT":-8.9e-7,"MEAN_MOTION_DDOT":0},{"OBJECT_NAME":"HULIANWANG DIGUI-104","OBJECT_ID":"2025-258J","EPOCH":"2026-03-26T11:23:38.520960","MEAN_MOTION":13.29334647,"ECCENTRICITY":6.21e-5,"INCLINATION":50.0013,"RA_OF_ASC_NODE":231.9653,"ARG_OF_PERICENTER":183.1424,"MEAN_ANOMALY":176.9444,"EPHEMERIS_TYPE":0,"CLASSIFICATION_TYPE":"U","NORAD_CAT_ID":66420,"ELEMENT_SET_NO":999,"REV_AT_EPOCH":1872,"BSTAR":8.4968e-5,"MEAN_MOTION_DOT":-8.5e-7,"MEAN_MOTION_DDOT":0},{"OBJECT_NAME":"HULIANWANG DIGUI-105","OBJECT_ID":"2025-285A","EPOCH":"2026-03-26T11:29:19.055328","MEAN_MOTION":13.29332718,"ECCENTRICITY":4.34e-5,"INCLINATION":50.0042,"RA_OF_ASC_NODE":82.8481,"ARG_OF_PERICENTER":359.5705,"MEAN_ANOMALY":0.5166,"EPHEMERIS_TYPE":0,"CLASSIFICATION_TYPE":"U","NORAD_CAT_ID":66915,"ELEMENT_SET_NO":999,"REV_AT_EPOCH":1505,"BSTAR":7.8683e-5,"MEAN_MOTION_DOT":-8.8e-7,"MEAN_MOTION_DDOT":0},{"OBJECT_NAME":"HULIANWANG DIGUI-106","OBJECT_ID":"2025-285B","EPOCH":"2026-03-24T03:21:04.920192","MEAN_MOTION":13.29360641,"ECCENTRICITY":0.00014513,"INCLINATION":50.0302,"RA_OF_ASC_NODE":91.2872,"ARG_OF_PERICENTER":188.8325,"MEAN_ANOMALY":171.2522,"EPHEMERIS_TYPE":0,"CLASSIFICATION_TYPE":"U","NORAD_CAT_ID":66916,"ELEMENT_SET_NO":999,"REV_AT_EPOCH":1474,"BSTAR":-1.1177533,"MEAN_MOTION_DOT":-0.00498656,"MEAN_MOTION_DDOT":0},{"OBJECT_NAME":"HULIANWANG DIGUI-107","OBJECT_ID":"2025-285C","EPOCH":"2026-03-26T12:53:32.004672","MEAN_MOTION":13.29332116,"ECCENTRICITY":3.98e-5,"INCLINATION":50.0018,"RA_OF_ASC_NODE":82.47,"ARG_OF_PERICENTER":1.0276,"MEAN_ANOMALY":359.0597,"EPHEMERIS_TYPE":0,"CLASSIFICATION_TYPE":"U","NORAD_CAT_ID":66917,"ELEMENT_SET_NO":999,"REV_AT_EPOCH":1506,"BSTAR":6.5786e-5,"MEAN_MOTION_DOT":-9.4e-7,"MEAN_MOTION_DDOT":0},{"OBJECT_NAME":"HULIANWANG DIGUI-108","OBJECT_ID":"2025-285D","EPOCH":"2026-03-26T12:41:28.927392","MEAN_MOTION":13.2933275,"ECCENTRICITY":3.77e-5,"INCLINATION":50.004,"RA_OF_ASC_NODE":82.4469,"ARG_OF_PERICENTER":2.2496,"MEAN_ANOMALY":357.8378,"EPHEMERIS_TYPE":0,"CLASSIFICATION_TYPE":"U","NORAD_CAT_ID":66918,"ELEMENT_SET_NO":999,"REV_AT_EPOCH":1506,"BSTAR":7.0975e-5,"MEAN_MOTION_DOT":-9.1e-7,"MEAN_MOTION_DDOT":0},{"OBJECT_NAME":"HULIANWANG DIGUI-109","OBJECT_ID":"2025-285E","EPOCH":"2026-03-26T10:41:12.264576","MEAN_MOTION":13.29332611,"ECCENTRICITY":3.76e-5,"INCLINATION":50.0065,"RA_OF_ASC_NODE":82.6972,"ARG_OF_PERICENTER":359.7045,"MEAN_ANOMALY":0.3827,"EPHEMERIS_TYPE":0,"CLASSIFICATION_TYPE":"U","NORAD_CAT_ID":66919,"ELEMENT_SET_NO":999,"REV_AT_EPOCH":1506,"BSTAR":7.1842e-5,"MEAN_MOTION_DOT":-9.1e-7,"MEAN_MOTION_DDOT":0},{"OBJECT_NAME":"HULIANWANG DIGUI-110","OBJECT_ID":"2025-285F","EPOCH":"2026-03-26T12:17:27.440160","MEAN_MOTION":13.29332034,"ECCENTRICITY":3.93e-5,"INCLINATION":50.0097,"RA_OF_ASC_NODE":82.4148,"ARG_OF_PERICENTER":358.9243,"MEAN_ANOMALY":1.1629,"EPHEMERIS_TYPE":0,"CLASSIFICATION_TYPE":"U","NORAD_CAT_ID":66920,"ELEMENT_SET_NO":999,"REV_AT_EPOCH":1506,"BSTAR":7.6267e-5,"MEAN_MOTION_DOT":-8.9e-7,"MEAN_MOTION_DDOT":0},{"OBJECT_NAME":"HULIANWANG DIGUI-111","OBJECT_ID":"2025-285G","EPOCH":"2026-03-26T12:05:25.747872","MEAN_MOTION":13.29332047,"ECCENTRICITY":3.9e-5,"INCLINATION":50.0113,"RA_OF_ASC_NODE":82.3874,"ARG_OF_PERICENTER":0.6997,"MEAN_ANOMALY":359.3876,"EPHEMERIS_TYPE":0,"CLASSIFICATION_TYPE":"U","NORAD_CAT_ID":66921,"ELEMENT_SET_NO":999,"REV_AT_EPOCH":1506,"BSTAR":8.5034e-5,"MEAN_MOTION_DOT":-8.5e-7,"MEAN_MOTION_DDOT":0},{"OBJECT_NAME":"HULIANWANG DIGUI-112","OBJECT_ID":"2025-285H","EPOCH":"2026-03-26T11:53:22.892640","MEAN_MOTION":13.29332754,"ECCENTRICITY":4.06e-5,"INCLINATION":50.0076,"RA_OF_ASC_NODE":82.3103,"ARG_OF_PERICENTER":2.0697,"MEAN_ANOMALY":358.0177,"EPHEMERIS_TYPE":0,"CLASSIFICATION_TYPE":"U","NORAD_CAT_ID":66922,"ELEMENT_SET_NO":999,"REV_AT_EPOCH":1506,"BSTAR":9.2913e-5,"MEAN_MOTION_DOT":-8.1e-7,"MEAN_MOTION_DDOT":0}]
